OBJECT_NAME,OBJECT_ID,EPOCH,MEAN_MOTION,ECCENTRICITY,INCLINATION,RA_OF_ASC_NODE,ARG_OF_PERICENTER,MEAN_ANOMALY,EPHEMERIS_TYPE,CLASSIFICATION_TYPE,NORAD_CAT_ID,ELEMENT_SET_NO,REV_AT_EPOCH,BSTAR,MEAN_MOTION_DOT,MEAN_MOTION_DDOT
ONEWEB-0162,2021-025Q,2026-06-30T18:22:33.236544,13.13469085,.00019399,87.8974,317.5207,93.9851,266.1500,0,U,48056,999,25532,.81353005E-4,.42E-6,0
ONEWEB-0155,2021-025R,2026-07-01T01:51:16.489152,13.13468811,.0001958,87.8975,317.4550,103.3668,256.7679,0,U,48057,999,25550,-.27515E-3,-.88E-6,0
ONEWEB-0149,2021-025S,2026-06-30T19:04:11.098560,13.13470449,.00019324,87.8975,317.5154,92.9524,267.1826,0,U,48058,999,25527,-.12274512E-2,-.435E-5,0
ONEWEB-0148,2021-025T,2026-07-01T03:19:02.094816,13.13469222,.0002293,87.8972,317.4529,82.8259,277.3131,0,U,48059,999,25544,.11581E-2,.436E-5,0
ONEWEB-0160,2021-025U,2026-07-01T01:53:42.156096,13.13468316,.0001135,87.8969,317.4605,95.5185,264.6074,0,U,48060,999,25538,-.20067E-3,-.61E-6,0
ONEWEB-0163,2021-025V,2026-07-01T03:21:28.168704,13.13468106,.0002165,87.8976,317.4437,101.4290,258.7082,0,U,48061,999,25551,.76938E-3,.294E-5,0
ONEWEB-0159,2021-025W,2026-06-30T19:50:30.042240,13.13469460,.00021107,87.8978,317.5000,102.9426,257.1939,0,U,48062,999,25539,.95270196E-3,.361E-5,0
ONEWEB-0164,2021-025X,2026-07-01T02:42:27.571104,13.13469987,.0001805,87.8977,317.4496,99.3119,260.8214,0,U,48063,999,25541,-.53635E-3,-.183E-5,0
ONEWEB-0167,2021-025Y,2026-07-01T03:22:42.127104,13.13467698,.0002207,87.8969,317.4523,122.1381,237.9963,0,U,48064,999,25540,.67433E-3,.259E-5,0
ONEWEB-0166,2021-025Z,2026-07-01T02:05:54.200832,13.13469733,.0001933,87.8978,317.4357,96.9607,263.1742,0,U,48065,999,25547,-.12119E-2,-.43E-5,0
ONEWEB-0151,2021-025AA,2026-07-01T02:08:19.529952,13.13468336,.0001866,87.8971,317.4512,102.4132,257.7206,0,U,48066,999,25541,-.58433E-3,-.201E-5,0
ONEWEB-0170,2021-025AB,2026-06-30T09:53:14.515584,13.13469307,.00014363,87.8970,317.5882,109.9782,250.1501,0,U,48067,999,25528,-.55737478E-3,-.191E-5,0
ONEWEB-0168,2021-025AC,2026-07-01T01:58:34.512096,13.13468202,.0001908,87.8978,317.4550,100.2003,259.9341,0,U,48068,999,25538,-.47184E-3,-.16E-5,0
ONEWEB-0173,2021-025AD,2026-07-01T01:46:23.860128,13.13468843,.0002181,87.8972,317.4578,105.0445,255.0925,0,U,48069,999,25562,-.22455E-3,-.69E-6,0
ONEWEB-0171,2021-025AE,2026-07-01T02:40:01.174080,13.13469912,.0001838,87.8967,317.4581,101.7808,258.3527,0,U,48070,999,25544,-.8787E-3,-.308E-5,0
ONEWEB-0172,2021-025AF,2026-07-01T02:10:46.434144,13.13469465,.0001968,87.8972,317.4529,103.2840,256.8509,0,U,48071,999,25633,-.62619E-3,-.216E-5,0
ONEWEB-0174,2021-025AG,2026-07-01T01:43:57.198720,13.13460987,.0001872,87.8984,317.4550,90.4114,269.7230,0,U,48072,999,25565,.16628E-1,.6088E-4,0
ONEWEB-0175,2021-025AH,2026-07-01T02:27:49.906080,13.13469937,.0001791,87.8978,317.4348,109.3295,250.8028,0,U,48073,999,25531,-.12381E-2,-.439E-5,0
ONEWEB-0177,2021-025AJ,2026-07-01T02:44:54.303360,13.13469235,.0002112,87.8974,317.4507,97.3409,262.7961,0,U,48074,999,25550,.14378E-3,.65E-6,0
ONEWEB-0178,2021-025AK,2026-06-30T08:54:58.567680,13.13468968,.00018276,87.8967,317.6081,104.1163,256.0169,0,U,48075,999,25545,.11587327E-2,.436E-5,0
ONEWEB-0108,2021-025AL,2026-07-01T02:13:12.332640,13.13469670,.0001787,87.8977,317.4463,91.9158,268.2175,0,U,48076,999,25547,-.1215E-2,-.431E-5,0
ONEWEB-0169,2021-025AM,2026-07-01T02:59:31.765344,13.13469733,.0001983,87.8971,317.4473,96.1616,263.9739,0,U,48077,999,25413,.17101E-3,.75E-6,0
ONEWEB-0176,2021-031A,2026-07-01T00:46:41.242656,13.14502996,.0001994,87.8973,286.9405,103.6223,256.5129,0,U,48210,999,25013,-.28169E-3,-.92E-6,0
ONEWEB-0184,2021-031B,2026-07-01T00:07:52.025664,13.14502497,.0002143,87.8980,286.9474,123.6150,236.5184,0,U,48211,999,25010,-.1114E-2,-.4E-5,0
ONEWEB-0179,2021-031C,2026-06-30T23:50:44.207808,14.25535462,.0219817,87.8998,283.6496,211.8063,146.9700,0,U,48212,999,25101,.10901E-3,.35E-5,0
ONEWEB-0180,2021-031D,2026-06-30T07:45:57.566880,13.14504559,.00023618,87.8983,287.0796,106.4666,253.6723,0,U,48213,999,24994,-.69579294E-3,-.245E-5,0
ONEWEB-0218,2021-031E,2026-07-01T00:44:25.090080,13.14503107,.0002436,87.8980,286.9380,121.2038,238.9331,0,U,48214,999,25019,.40955E-4,.28E-6,0
ONEWEB-0209,2021-031F,2026-07-01T00:28:25.521312,13.14501577,.0002223,87.8969,286.9559,99.5374,260.6007,0,U,48215,999,25019,-.60674E-3,-.212E-5,0
ONEWEB-0198,2021-031G,2026-07-01T00:05:47.538816,13.14502721,.0002315,87.8945,286.9594,112.8484,247.2890,0,U,48216,999,25030,-.51766E-3,-.179E-5,0
ONEWEB-0189,2021-031H,2026-06-30T17:05:24.873216,13.14503215,.00022119,87.8974,287.0031,107.1281,253.0091,0,U,48217,999,25000,-.87560079E-3,-.312E-5,0
